{
  "type": "FeatureCollection",
  "features": [
    {
      "type": "Feature",
      "properties": {
        "norad_id": 35459,
        "name": "COSMOS 2251 DEB",
        "group": "cosmos-2251-debris",
        "lat": 2.6517039995769824,
        "lon": -12.004346738313444,
        "alt_km": 764.0130961774776,
        "timestamp": "2025-12-22T16:55:17.861045+00:00",
        "meta_object_name": "COSMOS 2251 DEB",
        "meta_object_id": "1993-036ALD",
        "meta_epoch": "2025-12-21T18:23:18.751200",
        "meta_mean_motion": 14.37474606,
        "meta_eccentricity": 0.0015969,
        "meta_inclination": 73.8701,
        "meta_ra_of_asc_node": 170.5081,
        "meta_arg_of_pericenter": 115.4549,
        "meta_mean_anomaly": 244.8258,
        "meta_ephemeris_type": 0,
        "meta_classification_type": "U",
        "meta_norad_cat_id": 35459,
        "meta_element_set_no": 999,
        "meta_rev_at_epoch": 58491,
        "meta_bstar": 0.00020108543,
        "meta_mean_motion_dot": 5.75e-06,
        "meta_mean_motion_ddot": 0,
        "tle_line1": "1 35459U 93036ALD 25355.76618925  .00000575  00000+0  20109-3 0  9992",
        "tle_line2": "2 35459  73.8701 170.5081 0015969 115.4549 244.8258 14.37474606584917"
      },
      "geometry": {
        "type": "Point",
        "coordinates": [
          -12.004346738313444,
          2.6517039995769824
        ]
      }
    },
    {
      "type": "Feature",
      "properties": {
        "norad_id": 35462,
        "name": "COSMOS 2251 DEB",
        "group": "cosmos-2251-debris",
        "lat": -47.9195711520894,
        "lon": -127.8937324842675,
        "alt_km": 744.3270140995328,
        "timestamp": "2025-12-22T16:55:17.861055+00:00",
        "meta_object_name": "COSMOS 2251 DEB",
        "meta_object_id": "1993-036ALG",
        "meta_epoch": "2025-12-19T10:12:24.458112",
        "meta_mean_motion": 14.29342636,
        "meta_eccentricity": 0.0086733,
        "meta_inclination": 74.0371,
        "meta_ra_of_asc_node": 256.5417,
        "meta_arg_of_pericenter": 290.2864,
        "meta_mean_anomaly": 68.8979,
        "meta_ephemeris_type": 0,
        "meta_classification_type": "U",
        "meta_norad_cat_id": 35462,
        "meta_element_set_no": 999,
        "meta_rev_at_epoch": 66476,
        "meta_bstar": 0.0010032,
        "meta_mean_motion_dot": 2.635e-05,
        "meta_mean_motion_ddot": 0,
        "tle_line1": "1 35462U 93036ALG 25353.42528308  .00002635  00000+0  10032-2 0  9994",
        "tle_line2": "2 35462  74.0371 256.5417 0086733 290.2864  68.8979 14.29342636664768"
      },
      "geometry": {
        "type": "Point",
        "coordinates": [
          -127.8937324842675,
          -47.9195711520894
        ]
      }
    },
    {
      "type": "Feature",
      "properties": {
        "norad_id": 35465,
        "name": "COSMOS 2251 DEB",
        "group": "cosmos-2251-debris",
        "lat": -5.345167253557345,
        "lon": -0.018913020621533244,
        "alt_km": 787.4428128644486,
        "timestamp": "2025-12-22T16:55:17.861065+00:00",
        "meta_object_name": "COSMOS 2251 DEB",
        "meta_object_id": "1993-036ALK",
        "meta_epoch": "2025-12-17T13:03:02.562624",
        "meta_mean_motion": 14.44331537,
        "meta_eccentricity": 0.00642719,
        "meta_inclination": 73.9967,
        "meta_ra_of_asc_node": 188.0661,
        "meta_arg_of_pericenter": 347.2721,
        "meta_mean_anomaly": 12.6809,
        "meta_ephemeris_type": 0,
        "meta_classification_type": "U",
        "meta_norad_cat_id": 35465,
        "meta_element_set_no": 999,
        "meta_rev_at_epoch": 87311,
        "meta_bstar": 0.00028334394,
        "meta_mean_motion_dot": 9.72e-06,
        "meta_mean_motion_ddot": 0,
        "tle_line1": "1 35465U 93036ALK 25351.54377966  .00000972  00000+0  28334-3 0  9997",
        "tle_line2": "2 35465  73.9967 188.0661 0064271 347.2721  12.6809 14.44331537873113"
      },
      "geometry": {
        "type": "Point",
        "coordinates": [
          -0.018913020621533244,
          -5.345167253557345
        ]
      }
    },
    {
      "type": "Feature",
      "properties": {
        "norad_id": 35469,
        "name": "COSMOS 2251 DEB",
        "group": "cosmos-2251-debris",
        "lat": -37.878120497211576,
        "lon": -161.97816869657797,
        "alt_km": 706.0095172923784,
        "timestamp": "2025-12-22T16:55:17.861076+00:00",
        "meta_object_name": "COSMOS 2251 DEB",
        "meta_object_id": "1993-036ALP",
        "meta_epoch": "2025-12-20T07:36:40.266144",
        "meta_mean_motion": 14.4982565,
        "meta_eccentricity": 0.00765645,
        "meta_inclination": 74.0168,
        "meta_ra_of_asc_node": 9.6263,
        "meta_arg_of_pericenter": 163.1432,
        "meta_mean_anomaly": 197.23,
        "meta_ephemeris_type": 0,
        "meta_classification_type": "U",
        "meta_norad_cat_id": 35469,
        "meta_element_set_no": 999,
        "meta_rev_at_epoch": 88221,
        "meta_bstar": 6.7527967e-05,
        "meta_mean_motion_dot": 2.41e-06,
        "meta_mean_motion_ddot": 0,
        "tle_line1": "1 35469U 93036ALP 25354.31713271  .00000241  00000+0  67528-4 0  9990",
        "tle_line2": "2 35469  74.0168   9.6263 0076564 163.1432 197.2300 14.49825650882216"
      },
      "geometry": {
        "type": "Point",
        "coordinates": [
          -161.97816869657797,
          -37.878120497211576
        ]
      }
    },
    {
      "type": "Feature",
      "properties": {
        "norad_id": 35475,
        "name": "COSMOS 2251 DEB",
        "group": "cosmos-2251-debris",
        "lat": 63.83518081803307,
        "lon": -178.02858044568967,
        "alt_km": 667.0422454274294,
        "timestamp": "2025-12-22T16:55:17.861087+00:00",
        "meta_object_name": "COSMOS 2251 DEB",
        "meta_object_id": "1993-036ALV",
        "meta_epoch": "2025-12-20T04:10:12.186624",
        "meta_mean_motion": 14.69875936,
        "meta_eccentricity": 0.00202744,
        "meta_inclination": 74.0213,
        "meta_ra_of_asc_node": 151.2034,
        "meta_arg_of_pericenter": 223.9843,
        "meta_mean_anomaly": 135.9716,
        "meta_ephemeris_type": 0,
        "meta_classification_type": "U",
        "meta_norad_cat_id": 35475,
        "meta_element_set_no": 999,
        "meta_rev_at_epoch": 65726,
        "meta_bstar": 0.0012274408,
        "meta_mean_motion_dot": 7.339e-05,
        "meta_mean_motion_ddot": 0,
        "tle_line1": "1 35475U 93036ALV 25354.17375216  .00007339  00000+0  12274-2 0  9995",
        "tle_line2": "2 35475  74.0213 151.2034 0020274 223.9843 135.9716 14.69875936657261"
      },
      "geometry": {
        "type": "Point",
        "coordinates": [
          -178.02858044568967,
          63.83518081803307
        ]
      }
    },
    {
      "type": "Feature",
      "properties": {
        "norad_id": 35476,
        "name": "COSMOS 2251 DEB",
        "group": "cosmos-2251-debris",
        "lat": 48.629103450822036,
        "lon": -157.69587192803667,
        "alt_km": 642.073483909533,
        "timestamp": "2025-12-22T16:55:17.861097+00:00",
        "meta_object_name": "COSMOS 2251 DEB",
        "meta_object_id": "1993-036ALW",
        "meta_epoch": "2025-12-22T05:18:01.075392",
        "meta_mean_motion": 14.75855397,
        "meta_eccentricity": 0.00182514,
        "meta_inclination": 73.9775,
        "meta_ra_of_asc_node": 42.298,
        "meta_arg_of_pericenter": 19.5237,
        "meta_mean_anomaly": 57.2254,
        "meta_ephemeris_type": 0,
        "meta_classification_type": "U",
        "meta_norad_cat_id": 35476,
        "meta_element_set_no": 999,
        "meta_rev_at_epoch": 88027,
        "meta_bstar": 0.0016720826,
        "meta_mean_motion_dot": 0.00011493,
        "meta_mean_motion_ddot": 0,
        "tle_line1": "1 35476U 93036ALW 25356.22084578  .00011493  00000+0  16721-2 0  9999",
        "tle_line2": "2 35476  73.9775  42.2980 0018251  19.5237  57.2254 14.75855397880278"
      },
      "geometry": {
        "type": "Point",
        "coordinates": [
          -157.69587192803667,
          48.629103450822036
        ]
      }
    },
    {
      "type": "Feature",
      "properties": {
        "norad_id": 35580,
        "name": "COSMOS 2251 DEB",
        "group": "cosmos-2251-debris",
        "lat": 4.392526337466991,
        "lon": -19.495061105172343,
        "alt_km": 749.2696213447725,
        "timestamp": "2025-12-22T16:55:17.861107+00:00",
        "meta_object_name": "COSMOS 2251 DEB",
        "meta_object_id": "1993-036ALX",
        "meta_epoch": "2025-12-21T17:31:49.223712",
        "meta_mean_motion": 13.83913818,
        "meta_eccentricity": 0.02807945,
        "meta_inclination": 73.9009,
        "meta_ra_of_asc_node": 163.4331,
        "meta_arg_of_pericenter": 166.9266,
        "meta_mean_anomaly": 193.9339,
        "meta_ephemeris_type": 0,
        "meta_classification_type": "U",
        "meta_norad_cat_id": 35580,
        "meta_element_set_no": 999,
        "meta_rev_at_epoch": 62381,
        "meta_bstar": 0.0017136916,
        "meta_mean_motion_dot": 2.557e-05,
        "meta_mean_motion_ddot": 0,
        "tle_line1": "1 35580U 93036ALX 25355.73043083  .00002557  00000+0  17137-2 0  9999",
        "tle_line2": "2 35580  73.9009 163.4331 0280794 166.9266 193.9339 13.83913818623810"
      },
      "geometry": {
        "type": "Point",
        "coordinates": [
          -19.495061105172343,
          4.392526337466991
        ]
      }
    }
  ]
}